{"type":"Topology","objects":{"objects":{"type":"GeometryCollection","geometries":[{"type":"Polygon","arcs":[[0]],"properties":{"clime":"hot"}},{"type":"Polygon","arcs":[[1]],"properties":{"clime":"wet"}},{"type":"Polygon","arcs":[[2]],"properties":{"clime":"ice"}},{"type":"Polygon","arcs":[[3]],"properties":{"clime":"pine"}},{"type":"Polygon","arcs":[[4]]},{"type":"Polygon","arcs":[[5]],"properties":{"clime":"wet"}},{"type":"Polygon","arcs":[[6]],"properties":{"clime":"peak"}},{"type":"Polygon","arcs":[[7]],"properties":{"clime":"wet"}},{"type":"Polygon","arcs":[[8]],"properties":{"clime":"hot"}},{"type":"Polygon","arcs":[[9]],"properties":{"clime":"ice"}},{"type":"Polygon","arcs":[[10]],"properties":{"clime":"pine"}},{"type":"Polygon","arcs":[[11]],"properties":{"clime":"hot"}},{"type":"Polygon","arcs":[[12]],"properties":{"clime":"pine"}},{"type":"Polygon","arcs":[[13]],"properties":{"clime":"hot"}}]}},"arcs":[[[79.613581,20.6615492],[-19.4992627,21.2118973],[-22.7159805,35.0565776],[25.3208905,34.8071855],[74.5171122,32.6210853],[79.613581,20.6615492]],[[70.97155707041145,18.142193678305773],[147.48828880727865,20.78161993097109],[147.73758161879152,-7.961463249381225],[71.1588905,-8.4659532],[70.97155707041145,18.142193678305773]],[[10.9176764,63.1208911],[45.0918167,62.5618042],[199.3730848,66.3277768],[120.040089,85.0511288],[8.3179844,76.9808443],[-75.6745671,85.0511288],[-165.5865899,70.3297281],[-168.8525458,59.8198131],[10.9176764,63.1208911]],[[-58.7470381,45.7027291],[-133.7466907,48.1737718],[-145.81358896693047,59.321228138451715],[-47.6276427,61.4487554],[-58.7470381,45.7027291]],[[-124.6669291805839,32.36318320872603],[-65.92495231583422,33.88569479572972],[-69.30570558024141,17.962660482517236],[-119.79298077041389,16.396518928417436],[-124.6669291805839,32.36318320872603]],[[-106.20547803008053,16.71172260440062],[-29.523856962225636,16.388696282667212],[-31.19070611752926,-14.005647627339457],[-104.26329043816058,-13.919999801323343],[-106.20547803008053,16.71172260440062]],[[78.351495,31.4355131],[96.732409,28.8876335],[94.8539076,24.7751307],[86.1969132,26.6418347],[78.5327701,30.1352092],[78.351495,31.4355131]],[[-21.0221008,18.1293522],[19.5018943,17.4964236],[60.5952278,18.5911148],[57.82556674152147,-8.675953632995487],[-16.205057868295057,-8.794708129535962],[-21.0221008,18.1293522]],[[8.644501382488272,-9.041673105328158],[50.8280076,-9.2901427],[52.33552363235438,-18.113502414916667],[7.930269189969465,-19.019841160673863],[8.644501382488272,-9.041673105328158]],[[273.0716947,-85.0511288],[52.8193581,-85.0511288],[-81.8969162,-85.0511288],[-90.5155707,-80.6411855],[-96.3020764,-72.2508483],[-14.876597168725937,-59.15077361557121],[57.64929465854962,-64.26501492512111],[264.022971,-72.5846139],[273.0716947,-85.0511288]],[[-15.346605055838353,62.359332793519826],[178.2861098,65.1300942],[169.8918744,57.5644695],[-13.1622974,51.7508424],[-15.346605055838353,62.359332793519826]],[[111.5026062373355,-18.01984744898691],[155.0168439999963,-16.316839714851398],[158.08861243413412,-28.48621816075346],[109.76085445582129,-29.697701143940535],[111.5026062373355,-18.01984744898691]],[[5.702965920498201,47.95643804825241],[25.147998331791143,47.410477052734734],[24.662682,45.0621436],[24.25561380342137,43.73436325715829],[6.10185758807927,44.315788777722304],[5.702965920498201,47.95643804825241]],[[57.60926043066911,49.41866425529162],[91.72640040093097,48.29340081463775],[91.7207224,44.69503],[89.17619398557349,41.75406343963087],[59.06906911244724,42.94939962914708],[57.60926043066911,49.41866425529162]]],"bbox":[-168.8525458,-85.0511288,273.0716947,85.0511288]}