{"type":"FeatureCollection","features":[{"type":"Feature","properties":{"clime":"hot"},"geometry":{"type":"Polygon","coordinates":[[[79.613581,20.661549],[74.517112,32.621085],[25.320891,34.807186],[-22.71598,35.056578],[-19.499263,21.211897],[79.613581,20.661549]]]}},{"type":"Feature","properties":{"clime":"wet"},"geometry":{"type":"Polygon","coordinates":[[[70.971557,18.142194],[71.158891,-8.465953],[147.737582,-7.961463],[147.488289,20.78162],[70.971557,18.142194]]]}},{"type":"Feature","properties":{"clime":"ice"},"geometry":{"type":"Polygon","coordinates":[[[10.917676,63.120891],[45.091817,62.561804],[199.373085,66.327777],[120.040089,85.051129],[8.317984,76.980844],[-75.674567,85.051129],[-165.58659,70.329728],[-168.852546,59.819813],[10.917676,63.120891]]]}},{"type":"Feature","properties":{"clime":"pine"},"geometry":{"type":"Polygon","coordinates":[[[-58.747038,45.702729],[-47.627643,61.448755],[-145.813589,59.321228],[-133.746691,48.173772],[-58.747038,45.702729]]]}},{"type":"Feature","properties":{},"geometry":{"type":"Polygon","coordinates":[[[-124.666929,32.363183],[-119.792981,16.396519],[-69.305706,17.96266],[-65.924952,33.885695],[-124.666929,32.363183]]]}},{"type":"Feature","properties":{"clime":"wet"},"geometry":{"type":"Polygon","coordinates":[[[-106.205478,16.711723],[-104.26329,-13.92],[-31.190706,-14.005648],[-29.523857,16.388696],[-106.205478,16.711723]]]}},{"type":"Feature","properties":{"clime":"peak"},"geometry":{"type":"Polygon","coordinates":[[[78.351495,31.435513],[78.53277,30.135209],[86.196913,26.641835],[94.853908,24.775131],[96.732409,28.887634],[78.351495,31.435513]]]}},{"type":"Feature","properties":{"clime":"wet"},"geometry":{"type":"Polygon","coordinates":[[[-21.022101,18.129352],[-16.205058,-8.794708],[57.825567,-8.675954],[60.595228,18.591115],[19.501894,17.496424],[-21.022101,18.129352]]]}},{"type":"Feature","properties":{"clime":"hot"},"geometry":{"type":"Polygon","coordinates":[[[8.644501,-9.041673],[7.930269,-19.019841],[52.335524,-18.113502],[50.828008,-9.290143],[8.644501,-9.041673]]]}},{"type":"Feature","properties":{"clime":"ice"},"geometry":{"type":"Polygon","coordinates":[[[273.071695,-85.051129],[264.022971,-72.584614],[57.649295,-64.265015],[-14.876597,-59.150774],[-96.302076,-72.250848],[-90.515571,-80.641185],[-81.896916,-85.051129],[52.819358,-85.051129],[273.071695,-85.051129]]]}},{"type":"Feature","properties":{"clime":"pine"},"geometry":{"type":"Polygon","coordinates":[[[-15.346605,62.359333],[-13.162297,51.750842],[169.891874,57.56447],[178.28611,65.130094],[-15.346605,62.359333]]]}},{"type":"Feature","properties":{"clime":"hot"},"geometry":{"type":"Polygon","coordinates":[[[111.502606,-18.019847],[109.760854,-29.697701],[158.088612,-28.486218],[155.016844,-16.31684],[111.502606,-18.019847]]]}},{"type":"Feature","properties":{"clime":"pine"},"geometry":{"type":"Polygon","coordinates":[[[5.702966,47.956438],[6.101858,44.315789],[24.255614,43.734363],[24.662682,45.062144],[25.147998,47.410477],[5.702966,47.956438]]]}},{"type":"Feature","properties":{"clime":"hot"},"geometry":{"type":"Polygon","coordinates":[[[57.60926,49.418664],[59.069069,42.9494],[89.176194,41.754063],[91.720722,44.69503],[91.7264,48.293401],[57.60926,49.418664]]]}}]}